{
  "norad_id": 57402,
  "name": "TIANMU-1 10",
  "history": [
    {
      "epoch": "2026-03-28T22:31:34.485312Z",
      "apogee_km": 482.2551550544822,
      "perigee_km": 473.3645003272677,
      "latitude_deg": -6.116095880134721e-05,
      "longitude_deg": -23.584037027415533,
      "height_km": 480.4048272458076,
      "semi_major_axis_km": 6855.946827690875,
      "eccentricity": 0.00064839,
      "inclination_deg": 97.2717,
      "raan_deg": 140.6615,
      "arg_perigee_deg": 83.5509,
      "mean_anomaly_deg": 276.6469,
      "mean_motion_rev_day": 15.29331384
    },
    {
      "epoch": "2026-03-29T04:48:27.133056Z",
      "apogee_km": 482.2273327516823,
      "perigee_km": 473.3489097196825,
      "latitude_deg": 5.276487824810954e-05,
      "longitude_deg": -117.80548046294926,
      "height_km": 480.3280811788014,
      "semi_major_axis_km": 6855.925121235682,
      "eccentricity": 0.0006475,
      "inclination_deg": 97.2717,
      "raan_deg": 140.9174,
      "arg_perigee_deg": 82.8263,
      "mean_anomaly_deg": 277.3714,
      "mean_motion_rev_day": 15.29338647
    },
    {
      "epoch": "2026-03-30T04:21:43.954272Z",
      "apogee_km": 482.1470776264905,
      "perigee_km": 473.3156222528323,
      "latitude_deg": -5.02790265798305e-05,
      "longitude_deg": -111.13341119961817,
      "height_km": 480.07315171294397,
      "semi_major_axis_km": 6855.868349939661,
      "eccentricity": 0.00064408,
      "inclination_deg": 97.2713,
      "raan_deg": 141.8769,
      "arg_perigee_deg": 80.1853,
      "mean_anomaly_deg": 280.0114,
      "mean_motion_rev_day": 15.29357643
    },
    {
      "epoch": "2026-03-30T13:47:02.390208Z",
      "apogee_km": 482.11259862425413,
      "perigee_km": 473.305852796555,
      "latitude_deg": -2.558312090745428e-06,
      "longitude_deg": 107.5368277248498,
      "height_km": 479.97374052677816,
      "semi_major_axis_km": 6855.846225710404,
      "eccentricity": 0.00064228,
      "inclination_deg": 97.2713,
      "raan_deg": 142.2609,
      "arg_perigee_deg": 79.1342,
      "mean_anomaly_deg": 281.0621,
      "mean_motion_rev_day": 15.29365046
    },
    {
      "epoch": "2026-03-30T21:38:07.617984Z",
      "apogee_km": 482.0868715290899,
      "perigee_km": 473.292902381193,
      "latitude_deg": 1.9372403157827902e-05,
      "longitude_deg": -10.23750476232026,
      "height_km": 479.89108851327757,
      "semi_major_axis_km": 6855.826886955141,
      "eccentricity": 0.00064135,
      "inclination_deg": 97.2712,
      "raan_deg": 142.5808,
      "arg_perigee_deg": 78.2761,
      "mean_anomaly_deg": 281.9199,
      "mean_motion_rev_day": 15.29371517
    },
    {
      "epoch": "2026-03-31T21:11:22.636032Z",
      "apogee_km": 482.0019103082186,
      "perigee_km": 473.27039761932974,
      "latitude_deg": 5.4840191515658824e-05,
      "longitude_deg": -3.557718567095792,
      "height_km": 479.65705557338066,
      "semi_major_axis_km": 6855.773153963773,
      "eccentricity": 0.0006368,
      "inclination_deg": 97.2708,
      "raan_deg": 143.5405,
      "arg_perigee_deg": 75.7589,
      "mean_anomaly_deg": 284.4359,
      "mean_motion_rev_day": 15.29389497
    },
    {
      "epoch": "2026-04-01T20:44:36.663072Z",
      "apogee_km": 481.91468511060975,
      "perigee_km": 473.266870091943,
      "latitude_deg": 2.8750809664950958e-05,
      "longitude_deg": 3.1259158206903703,
      "height_km": 479.43074126102516,
      "semi_major_axis_km": 6855.727777601276,
      "eccentricity": 0.0006307,
      "inclination_deg": 97.2703,
      "raan_deg": 144.4999,
      "arg_perigee_deg": 73.1239,
      "mean_anomaly_deg": 287.0693,
      "mean_motion_rev_day": 15.29404681
    },
    {
      "epoch": "2026-04-02T20:17:49.641216Z",
      "apogee_km": 481.80870764799784,
      "perigee_km": 473.23776122290656,
      "latitude_deg": -3.170557320177115e-05,
      "longitude_deg": 9.81433646131103,
      "height_km": 479.1887190474143,
      "semi_major_axis_km": 6855.660234435452,
      "eccentricity": 0.0006251,
      "inclination_deg": 97.2698,
      "raan_deg": 145.4597,
      "arg_perigee_deg": 70.5064,
      "mean_anomaly_deg": 289.6851,
      "mean_motion_rev_day": 15.29427283
    },
    {
      "epoch": "2026-04-02T21:52:02.457120Z",
      "apogee_km": 481.80149045969574,
      "perigee_km": 473.2331565730792,
      "latitude_deg": -5.131805738260393e-05,
      "longitude_deg": -13.739547521592392,
      "height_km": 479.17322460791104,
      "semi_major_axis_km": 6855.654323516387,
      "eccentricity": 0.00062491,
      "inclination_deg": 97.2698,
      "raan_deg": 145.5237,
      "arg_perigee_deg": 70.3639,
      "mean_anomaly_deg": 289.8275,
      "mean_motion_rev_day": 15.29429261
    },
    {
      "epoch": "2026-04-03T19:51:01.167840Z",
      "apogee_km": 481.6904982329279,
      "perigee_km": 473.18958270274743,
      "latitude_deg": 2.4088026021646593e-05,
      "longitude_deg": 16.50840620070119,
      "height_km": 478.9289465329647,
      "semi_major_axis_km": 6855.577040467837,
      "eccentricity": 0.00062,
      "inclination_deg": 97.2695,
      "raan_deg": 146.4191,
      "arg_perigee_deg": 67.7855,
      "mean_anomaly_deg": 292.4043,
      "mean_motion_rev_day": 15.29455123
    },
    {
      "epoch": "2026-04-04T20:58:23.906784Z",
      "apogee_km": 481.5838421804083,
      "perigee_km": 473.1584226856494,
      "latitude_deg": 5.8759159574163424e-05,
      "longitude_deg": -0.3443088922493155,
      "height_km": 478.7029004006107,
      "semi_major_axis_km": 6855.508132433029,
      "eccentricity": 0.0006145,
      "inclination_deg": 97.2693,
      "raan_deg": 147.4429,
      "arg_perigee_deg": 65.2381,
      "mean_anomaly_deg": 294.9499,
      "mean_motion_rev_day": 15.29478183
    },
    {
      "epoch": "2026-04-05T14:14:42.581760Z",
      "apogee_km": 481.4997830863813,
      "perigee_km": 473.1591483655211,
      "latitude_deg": 6.099121748359643e-06,
      "longitude_deg": 100.5723543594873,
      "height_km": 478.543036053467,
      "semi_major_axis_km": 6855.466465725951,
      "eccentricity": 0.00060832,
      "inclination_deg": 97.2692,
      "raan_deg": 148.1467,
      "arg_perigee_deg": 63.158,
      "mean_anomaly_deg": 297.0282,
      "mean_motion_rev_day": 15.29492127
    },
    {
      "epoch": "2026-04-05T20:31:32.901024Z",
      "apogee_km": 481.47757134636595,
      "perigee_km": 473.1564212856374,
      "latitude_deg": -2.1697189351807982e-05,
      "longitude_deg": 6.360556923149708,
      "height_km": 478.4855576578856,
      "semi_major_axis_km": 6855.453996316001,
      "eccentricity": 0.0006069,
      "inclination_deg": 97.269,
      "raan_deg": 148.4025,
      "arg_perigee_deg": 62.391,
      "mean_anomaly_deg": 297.7946,
      "mean_motion_rev_day": 15.294963
    },
    {
      "epoch": "2026-04-06T05:56:48.268032Z",
      "apogee_km": 481.4406254397154,
      "perigee_km": 473.1562430435597,
      "latitude_deg": 3.297584285322256e-05,
      "longitude_deg": -134.95648415001588,
      "height_km": 478.4105911440029,
      "semi_major_axis_km": 6855.435434241637,
      "eccentricity": 0.00060422,
      "inclination_deg": 97.269,
      "raan_deg": 148.7864,
      "arg_perigee_deg": 61.3704,
      "mean_anomaly_deg": 298.8144,
      "mean_motion_rev_day": 15.29502512
    },
    {
      "epoch": "2026-04-07T14:55:11.017920Z",
      "apogee_km": 481.31382296836273,
      "perigee_km": 473.16456307267254,
      "latitude_deg": -7.00737980487655e-06,
      "longitude_deg": 90.4383736119277,
      "height_km": 478.1543876188203,
      "semi_major_axis_km": 6855.376193020517,
      "eccentricity": 0.00059437,
      "inclination_deg": 97.269,
      "raan_deg": 150.1302,
      "arg_perigee_deg": 57.6168,
      "mean_anomaly_deg": 302.5647,
      "mean_motion_rev_day": 15.29522338
    },
    {
      "epoch": "2026-04-07T21:12:00.911232Z",
      "apogee_km": 481.30135387255996,
      "perigee_km": 473.16265978765205,
      "latitude_deg": 6.114484898004644e-05,
      "longitude_deg": -3.771656634547048,
      "height_km": 478.095241890994,
      "semi_major_axis_km": 6855.369006830106,
      "eccentricity": 0.0005936,
      "inclination_deg": 97.2689,
      "raan_deg": 150.386,
      "arg_perigee_deg": 56.6968,
      "mean_anomaly_deg": 303.4841,
      "mean_motion_rev_day": 15.29524743
    },
    {
      "epoch": "2026-04-08T14:28:17.755392Z",
      "apogee_km": 481.2248984807684,
      "perigee_km": 473.1826240201144,
      "latitude_deg": 8.497822812207184e-05,
      "longitude_deg": 97.1526451786479,
      "height_km": 477.9672829881113,
      "semi_major_axis_km": 6855.340761250441,
      "eccentricity": 0.00058657,
      "inclination_deg": 97.2689,
      "raan_deg": 151.0898,
      "arg_perigee_deg": 54.5111,
      "mean_anomaly_deg": 305.6677,
      "mean_motion_rev_day": 15.29534196
    },
    {
      "epoch": "2026-04-09T20:18:20.155104Z",
      "apogee_km": 481.1840041522846,
      "perigee_km": 473.82515847890045,
      "latitude_deg": 3.7623474728255786e-05,
      "longitude_deg": 9.633209858716308,
      "height_km": 478.1472762660984,
      "semi_major_axis_km": 6855.641581315592,
      "eccentricity": 0.0005367,
      "inclination_deg": 97.2689,
      "raan_deg": 152.3056,
      "arg_perigee_deg": 48.1102,
      "mean_anomaly_deg": 312.0596,
      "mean_motion_rev_day": 15.29433525
    },
    {
      "epoch": "2026-04-10T07:17:49.702272Z",
      "apogee_km": 481.1329592531347,
      "perigee_km": 473.843098934698,
      "latitude_deg": 9.182166154533249e-05,
      "longitude_deg": -155.24371793326924,
      "height_km": 478.10644168191504,
      "semi_major_axis_km": 6855.625029093916,
      "eccentricity": 0.00053167,
      "inclination_deg": 97.269,
      "raan_deg": 152.7532,
      "arg_perigee_deg": 47.099,
      "mean_anomaly_deg": 313.0697,
      "mean_motion_rev_day": 15.29439064
    },
    {
      "epoch": "2026-04-10T16:43:06.375648Z",
      "apogee_km": 481.0939603228762,
      "perigee_km": 473.85333857935075,
      "latitude_deg": -6.03764622002155e-06,
      "longitude_deg": 63.433702176611476,
      "height_km": 478.0646803423645,
      "semi_major_axis_km": 6855.610649451113,
      "eccentricity": 0.00052808,
      "inclination_deg": 97.2689,
      "raan_deg": 153.137,
      "arg_perigee_deg": 46.1335,
      "mean_anomaly_deg": 314.0341,
      "mean_motion_rev_day": 15.29443876
    },
    {
      "epoch": "2026-04-13T07:31:43.806144Z",
      "apogee_km": 480.88941115819125,
      "perigee_km": 474.2746021174471,
      "latitude_deg": -1.0972855496957769e-05,
      "longitude_deg": -158.74329156253316,
      "height_km": 478.0316552053768,
      "semi_major_axis_km": 6855.719006637819,
      "eccentricity": 0.00048243,
      "inclination_deg": 97.2688,
      "raan_deg": 155.6955,
      "arg_perigee_deg": 36.6969,
      "mean_anomaly_deg": 323.4601,
      "mean_motion_rev_day": 15.29407616
    },
    {
      "epoch": "2026-04-14T21:13:00.241248Z",
      "apogee_km": 480.9079537620346,
      "perigee_km": 474.90891400738565,
      "latitude_deg": 1.951265579170554e-05,
      "longitude_deg": -4.07466029016178,
      "height_km": 478.33731491174353,
      "semi_major_axis_km": 6856.045433884709,
      "eccentricity": 0.0004375,
      "inclination_deg": 97.2683,
      "raan_deg": 157.2304,
      "arg_perigee_deg": 26.9338,
      "mean_anomaly_deg": 333.2129,
      "mean_motion_rev_day": 15.29298391
    }
  ]
}